{
  "norad_id": 47367,
  "name": "STARLINK-2082",
  "history": [
    {
      "epoch": "2026-04-11T18:38:30.933024Z",
      "apogee_km": 472.4116791794777,
      "perigee_km": 470.39654418442205,
      "latitude_deg": -4.504476752568869e-05,
      "longitude_deg": 149.35160369090684,
      "height_km": 472.85387313980135,
      "semi_major_axis_km": 6849.54111168195,
      "eccentricity": 0.0001471,
      "inclination_deg": 53.1611,
      "raan_deg": 268.9719,
      "arg_perigee_deg": 123.1534,
      "mean_anomaly_deg": 236.9608,
      "mean_motion_rev_day": 15.3147724
    },
    {
      "epoch": "2026-04-13T06:00:02.000160Z",
      "apogee_km": 471.55917036925985,
      "perigee_km": 470.11431086893845,
      "latitude_deg": -22.48613563330781,
      "longitude_deg": 168.6274237185679,
      "height_km": 477.43361863018885,
      "semi_major_axis_km": 6848.973740619099,
      "eccentricity": 0.00010548,
      "inclination_deg": 53.1584,
      "raan_deg": 262.1156,
      "arg_perigee_deg": 101.4928,
      "mean_anomaly_deg": 106.7941,
      "mean_motion_rev_day": 15.31667546
    },
    {
      "epoch": "2026-04-14T22:00:01.998720Z",
      "apogee_km": 471.408657464056,
      "perigee_km": 470.0566905904034,
      "latitude_deg": 33.63710774390774,
      "longitude_deg": 110.98052879772665,
      "height_km": 472.59083269405517,
      "semi_major_axis_km": 6848.86967402723,
      "eccentricity": 9.87e-05,
      "inclination_deg": 53.1587,
      "raan_deg": 254.3577,
      "arg_perigee_deg": 89.9948,
      "mean_anomaly_deg": 313.6587,
      "mean_motion_rev_day": 15.31702456
    },
    {
      "epoch": "2026-04-15T16:36:10.912608Z",
      "apogee_km": 471.53730061301303,
      "perigee_km": 469.81276974255434,
      "latitude_deg": 1.854459424611973e-05,
      "longitude_deg": 157.85162660995982,
      "height_km": 471.7970755201362,
      "semi_major_axis_km": 6848.812035177783,
      "eccentricity": 0.0001259,
      "inclination_deg": 53.1588,
      "raan_deg": 250.7473,
      "arg_perigee_deg": 105.0181,
      "mean_anomaly_deg": 255.096,
      "mean_motion_rev_day": 15.31721792
    },
    {
      "epoch": "2026-04-16T16:05:35.365344Z",
      "apogee_km": 471.3410945032856,
      "perigee_km": 470.0822761149266,
      "latitude_deg": -4.272022917912413e-05,
      "longitude_deg": 159.97839126335634,
      "height_km": 471.645595119632,
      "semi_major_axis_km": 6848.848685309106,
      "eccentricity": 9.19e-05,
      "inclination_deg": 53.1596,
      "raan_deg": 246.1907,
      "arg_perigee_deg": 93.1703,
      "mean_anomaly_deg": 266.9403,
      "mean_motion_rev_day": 15.31709497
    },
    {
      "epoch": "2026-04-17T15:34:59.121696Z",
      "apogee_km": 471.2889528756359,
      "perigee_km": 470.06479588372986,
      "latitude_deg": 1.597939048658295e-05,
      "longitude_deg": 162.10835432991126,
      "height_km": 471.57072235653607,
      "semi_major_axis_km": 6848.813874379683,
      "eccentricity": 8.937e-05,
      "inclination_deg": 53.161,
      "raan_deg": 241.6343,
      "arg_perigee_deg": 89.4915,
      "mean_anomaly_deg": 270.6189,
      "mean_motion_rev_day": 15.31721175
    },
    {
      "epoch": "2026-04-18T15:04:23.810304Z",
      "apogee_km": 471.37963371765636,
      "perigee_km": 470.024933307378,
      "latitude_deg": 3.5104619745408903e-06,
      "longitude_deg": 164.23316836456863,
      "height_km": 471.5235059652115,
      "semi_major_axis_km": 6848.839283512517,
      "eccentricity": 9.89e-05,
      "inclination_deg": 53.1615,
      "raan_deg": 237.0767,
      "arg_perigee_deg": 83.388,
      "mean_anomaly_deg": 276.7234,
      "mean_motion_rev_day": 15.31712651
    },
    {
      "epoch": "2026-04-19T14:33:47.484576Z",
      "apogee_km": 471.3931414787194,
      "perigee_km": 469.9507823113445,
      "latitude_deg": 4.340870495237817e-05,
      "longitude_deg": 166.36285821824896,
      "height_km": 471.50030719115136,
      "semi_major_axis_km": 6848.808961895032,
      "eccentricity": 0.0001053,
      "inclination_deg": 53.1609,
      "raan_deg": 232.5197,
      "arg_perigee_deg": 84.3727,
      "mean_anomaly_deg": 275.7395,
      "mean_motion_rev_day": 15.31722823
    }
  ]
}